TDRS 3                  
1 19548U 88091B   21030.39835170 -.00000292  00000+0  00000+0 0  9997
2 19548  14.0489 355.4394 0040142 322.3364 266.4700  1.00279506105698
HST                     
1 20580U 90037B   21030.35658831  .00000520  00000+0  20543-4 0  9993
2 20580  28.4692 258.7645 0002706  18.7543 144.1188 15.09545811490210
TDRS 5                  
1 21639U 91054B   21030.60392483  .00000090  00000+0  00000+0 0  9998
2 21639  14.2514   8.7443 0026330 355.9000 175.3933  1.00264695108027
TDRS 6                  
1 22314U 93003B   21030.39955544 -.00000290  00000+0  00000+0 0  9997
2 22314  14.0782  11.9255 0006209  61.2621 154.4571  1.00265762102711
TDRS 7                  
1 23613U 95035B   21030.64529250 -.00000194  00000+0  00000+0 0  9999
2 23613  14.1426   2.6043 0028077  30.8184  53.7234  1.00268892 93561
ISS (ZARYA)             
1 25544U 98067A   21030.50133291  .00003153  00000+0  65512-4 0  9994
2 25544  51.6465 303.7326 0002392 315.8456 215.8385 15.48928800267250
LANDSAT 7               
1 25682U 99020A   21030.49286292  .00000041  00000+0  18726-4 0  9993
2 25682  98.0531  92.1074 0001104 105.1488 254.9836 14.57189625159300
TERRA                   
1 25994U 99068A   21030.55596647  .00000070  00000+0  25561-4 0  9993
2 25994  98.1911 107.4170 0001362  97.0391  14.1252 14.57123418123266
TDRS 8                  
1 26388U 00034A   21030.54714427 -.00000232  00000+0  00000+0 0  9990
2 26388   9.5819  45.9912 0019884 316.7480  53.5423  1.00275568 75491
TIMED                   
1 26998U 01055B   21030.60993539  .00000107  00000+0  15636-4 0  9997
2 26998  74.0712 200.9719 0002013 246.7234 113.3735 14.88263603 38239
TDRS 9                  
1 27389U 02011A   21030.44507811 -.00000285  00000+0  00000+0 0  9993
2 27389   7.9622  65.3696 0027779 279.9947 242.5098  1.00274011 70756
AQUA                    
1 27424U 02022A   21030.58834323  .00000096  00000+0  31483-4 0  9994
2 27424  98.2163 333.9046 0001936  42.2820 134.4498 14.57105502996945
TDRS 10                 
1 27566U 02055A   21030.60119590  .00000092  00000+0  00000+0 0  9994
2 27566   7.3020  52.5620 0009789 281.9345 200.7592  1.00270021 66544
SORCE                   
1 27651U 03004A   21030.58559701  .00000172  00000+0  31958-4 0  9993
2 27651  39.9951 143.2932 0022062 179.8881 180.1915 14.89228398978066
AURA                    
1 28376U 04026A   21030.56023106  .00000098  00000+0  31822-4 0  9993
2 28376  98.2170 336.0388 0001094  75.1236 285.0083 14.57113022879998
SWIFT                   
1 28485U 04047A   21030.59647161  .00000927  00000+0  32639-4 0  9991
2 28485  20.5557 234.5414 0011156  50.8069 309.3355 15.04843928887711
THEMIS A                
1 30580U 07004A   21030.22870513 -.00000390  00000+0 -27364-1 0  9997
2 30580  16.2302  28.1835 8397466  72.4876 356.1117  0.87835064 24018
THEMIS D                
1 30797U 07004D   21029.06641722 -.00000346  00000+0  00000+0 0  9991
2 30797  13.7755  12.4132 8370424  89.8922 353.7530  0.87837244 23807
THEMIS E                
1 30798U 07004E   21030.26333819 -.00000361  00000+0  00000+0 0  9998
2 30798  13.3322  23.8741 8362880  81.4171 354.9110  0.87841566 48656
AIM                     
1 31304U 07015A   21030.42786468  .00001052  00000+0  61760-4 0  9996
2 31304  97.8830 287.3639 0004067 315.3977  44.6926 15.14072798755022
FGRST (GLAST)           
1 33053U 08029A   21030.56395982  .00000574  00000+0  15975-4 0  9992
2 33053  25.5838 353.6543 0012614 115.7930 244.3908 15.11452338697630
WISE                    
1 36119U 09071A   21030.56668854  .00000908  00000+0  33248-4 0  9991
2 36119  97.3026  69.4875 0001237 334.3856  25.7323 15.30562683618537
TDRS 11                 
1 39070U 13004A   21030.59783064  .00000086  00000+0  00000+0 0  9997
2 39070   3.5123 335.2076 0004584  19.4378 176.3387  1.00265720 27001
TDRS 12                 
1 39504U 14004A   21030.39925451 -.00000261  00000+0  00000+0 0  9992
2 39504   4.3792 340.3639 0001796 333.9694 278.3530  1.00272584 24582
GPM-CORE                
1 39574U 14009C   21030.58560576  .00003384  00000+0  52778-4 0  9990
2 39574  65.0057  99.0796 0011220 289.4085  70.5849 15.55861112393378
MMS 1                   
1 40482U 15011A   21030.03802273 -.00001778  00000+0  00000+0 0  9999
2 40482  32.3800 118.6626 8469065  28.2085 351.4533  0.28550593 11888
MMS 2                   
1 40483U 15011B   21023.37500000 -.00001893  00000+0  00000+0 0  9990
2 40483  32.4021 118.8091 8467841  27.9366  26.9087  0.28553306 11929
MMS 3                   
1 40484U 15011C   21023.37500000 -.00001894  00000+0  00000+0 0  9992
2 40484  32.4030 118.8028 8468484  27.9404  26.9153  0.28555057 11612
MMS 4                   
1 40485U 15011D   21023.37500000 -.00001894  00000+0  00000+0 0  9993
2 40485  32.4031 118.8083 8469160  27.9371  26.8914  0.28555163 11825
TDRS 13                 
1 42915U 17047A   21030.32935684 -.00000092  00000+0  00000+0 0  9996
2 42915   5.2254 330.5873 0013775  89.8631 176.3515  1.00271622 12651
JPSS-1                  
1 43013U 17073A   21030.59760684  .00000000  00000+0  20977-4 0  9998
2 43013  98.7421 331.2549 0001349  79.9616 280.1712 14.19549041165883
